[
    {
        "Altitude(m)": 607895.7904074687,
        "Argument of Periapsis(deg)": 0.0,
        "Eccentricity": 0.0,
        "Inclination(deg)": 60.0,
        "Latitude(deg)": 40.998266520105105,
        "Longitude(deg)": -124.91129015803159,
        "Mean Anomaly(deg)": 130.9091,
        "RAAN(deg)": 184.99999999999997,
        "Satellite Name": "Test1 822",
        "Satellite Number": 822,
        "Semi-Major Axis(m)": 6980739.136638005,
        "Time(s)": 0
    },
    {
        "Altitude(m)": 607795.1030805351,
        "Argument of Periapsis(deg)": 0.00010418945913296404,
        "Eccentricity": 0.0,
        "Inclination(deg)": 60.0,
        "Latitude(deg)": 40.53059012920165,
        "Longitude(deg)": -124.41469791499969,
        "Mean Anomaly(deg)": 131.5292061454618,
        "RAAN(deg)": 184.99957995086024,
        "Satellite Name": "Test1 822",
        "Satellite Number": 822,
        "Semi-Major Axis(m)": 6980739.136638005,
        "Time(s)": 10
    }
]